NORAD_CAT_ID,OBJECT_NAME,OBJECT_TYPE,EPOCH,MEAN_MOTION,ECCENTRICITY,INCLINATION,RA_OF_ASC_NODE,ARG_OF_PERICENTER,MEAN_ANOMALY,BSTAR,MEAN_MOTION_DOT,MEAN_MOTION_DDOT,TLE_LINE0,TLE_LINE1,TLE_LINE2,SEMIMAJOR_AXIS,PERIOD,APOGEE,PERIGEE,DECAYED
52496.0,STARLINK-3871,PAYLOAD,2022-11-27 13:29:12,15.08839072,0.0002232,53.2175,22.7148,25.8546,334.2557,-2.382e-05,-6.67e-06,0.0,0 STARLINK-3871,1 52496U 22049AX  22331.56195436 -.00000667  00000-0 -23820-4 0  9993,2 52496  53.2175  22.7148 0002232  25.8546 334.2557 15.08839072 31583,6917.8830000000025,95.438,541.2919999999998,538.2040000000002,0.0
52496.0,STARLINK-3871,PAYLOAD,2022-11-28 03:47:41,15.08834603,0.0002116,53.2187,20.0374,28.7297,331.3811,-3.1924e-05,-7.96e-06,0.0,0 STARLINK-3871,1 52496U 22049AX  22332.15811656 -.00000796  00000-0 -31924-4 0  9995,2 52496  53.2187  20.0374 0002116  28.7297 331.3811 15.08834603 31670,6917.897,95.438,541.226,538.298,0.0
52496.0,STARLINK-3871,PAYLOAD,2022-11-28 08:33:50,15.08834042,0.0002092,53.2188,19.145,33.1711,326.9412,-3.2878e-05,-8.11e-06,0.0,0 STARLINK-3871,1 52496U 22049AX  22332.35683765 -.00000811  00000-0 -32878-4 0  9992,2 52496  53.2188  19.1450 0002092  33.1711 326.9412 15.08834042 31707,6917.899,95.438,541.211,538.316,0.0
52496.0,STARLINK-3871,PAYLOAD,2022-11-29 02:03:03,15.08883394,0.0002534,53.2174,15.8733,27.5706,332.542,-0.00057477,-9.436e-05,0.0,0 STARLINK-3871,1 52496U 22049AX  22333.08545962 -.00009436  00000-0 -57477-3 0  9992,2 52496  53.2174  15.8733 0002534  27.5706 332.5420 15.08883394 31819,6917.748000000001,95.435,541.366,537.86,0.0
52496.0,STARLINK-3871,PAYLOAD,2022-11-29 13:10:47,15.08829987,0.0002439,53.2174,13.7926,23.8701,336.2404,3.0652e-05,1.99e-06,0.0,0 STARLINK-3871,1 52496U 22049AX  22333.54916018  .00000199  00000-0  30652-4 0  9999,2 52496  53.2174  13.7926 0002439  23.8701 336.2404 15.08829987 31886,6917.911,95.438,541.4630000000002,538.089,0.0
52496.0,STARLINK-3871,PAYLOAD,2022-11-30 09:50:48,15.08831851,0.0002532,53.2176,9.9268,24.3405,335.7707,2.0127e-05,3.2e-07,0.0,0 STARLINK-3871,1 52496U 22049AX  22334.41028443  .00000032  00000-0  20127-4 0  9994,2 52496  53.2176   9.9268 0002532  24.3405 335.7707 15.08831851 32014,6917.905,95.438,541.5219999999998,538.019,0.0
52496.0,STARLINK-3871,PAYLOAD,2022-11-30 19:23:07,15.0883874,0.0002596,53.2176,8.1426,26.1569,333.9554,4.4257e-05,4.16e-06,0.0,0 STARLINK-3871,1 52496U 22049AX  22334.80772066  .00000416  00000-0  44257-4 0  9990,2 52496  53.2176   8.1426 0002596  26.1569 333.9554 15.08838740 32072,6917.884,95.438,541.545,537.953,0.0
52496.0,STARLINK-3871,PAYLOAD,2022-12-01 03:20:03,15.08835452,0.0002611,53.2178,6.6558,27.5583,332.5548,1.7162e-05,-1.5e-07,0.0,0 STARLINK-3871,1 52496U 22049AX  22335.13892436 -.00000015  00000-0  17162-4 0  9992,2 52496  53.2178   6.6558 0002611  27.5583 332.5548 15.08835452 32123,6917.894,95.438,541.566,537.953,0.0
52496.0,STARLINK-3871,PAYLOAD,2022-12-01 19:13:54,15.08836674,0.000264,53.2182,3.6827,30.7353,329.3793,5.6695e-05,6.14e-06,0.0,0 STARLINK-3871,1 52496U 22049AX  22335.80132424  .00000614  00000-0  56695-4 0  9998,2 52496  53.2182   3.6827 0002640  30.7353 329.3793 15.08836674 32221,6917.891,95.438,541.582,537.929,0.0
52496.0,STARLINK-3871,PAYLOAD,2022-12-02 01:35:26,15.08843176,0.0002595,53.2175,2.4926,30.9098,329.2046,0.00010191,1.334e-05,0.0,0 STARLINK-3871,1 52496U 22049AX  22336.06627851  .00001334  00000-0  10191-3 0  9990,2 52496  53.2175   2.4926 0002595  30.9098 329.2046 15.08843176 32266,6917.871,95.437,541.531,537.94,0.0
52496.0,STARLINK-3871,PAYLOAD,2022-12-02 19:04:40,15.08845354,0.0002708,53.2173,359.2211,29.9031,330.2115,7.3002e-05,8.74e-06,0.0,0 STARLINK-3871,1 52496U 22049AX  22336.79491645  .00000874  00000-0  73002-4 0  9999,2 52496  53.2173 359.2211 0002708  29.9031 330.2115 15.08845354 32376,6917.864000000001,95.437,541.602,537.856,0.0
52496.0,STARLINK-3871,PAYLOAD,2022-12-03 06:12:23,15.08833391,0.0002637,53.2177,357.1399,32.6021,327.5133,-1.7372e-05,-5.65e-06,0.0,0 STARLINK-3871,1 52496U 22049AX  22337.25860712 -.00000565  00000-0 -17372-4 0  9993,2 52496  53.2177 357.1399 0002637  32.6021 327.5133 15.08833391 32440,6917.901,95.438,541.59,537.941,0.0
52496.0,STARLINK-3871,PAYLOAD,2022-12-03 07:47:46,15.08832686,0.0002573,53.2176,356.8427,31.5074,328.6072,1.5493e-06,-2.64e-06,0.0,0 STARLINK-3871,1 52496U 22049AX  22337.32484685 -.00000264  00000-0  15493-5 0  9990,2 52496  53.2176 356.8427 0002573  31.5074 328.6072 15.08832686 32453,6917.903,95.438,541.548,537.988,0.0
52496.0,STARLINK-3871,PAYLOAD,2022-12-03 18:55:28,15.08839363,0.0002614,53.2177,354.7612,32.5501,327.5652,-7.3373e-07,-3e-06,0.0,0 STARLINK-3871,1 52496U 22049AX  22337.78852338 -.00000300  00000-0 -73373-6 0  9998,2 52496  53.2177 354.7612 0002614  32.5501 327.5652 15.08839363 32528,6917.882,95.438,541.556,537.939,0.0
52496.0,STARLINK-3871,PAYLOAD,2022-12-04 12:24:42,15.08839543,0.0002524,53.2175,351.48900000000015,35.905,324.2111,-1.3104e-05,-4.97e-06,0.0,0 STARLINK-3871,1 52496U 22049AX  22338.51716371 -.00000497  00000-0 -13104-4 0  9997,2 52496  53.2175 351.4890 0002524  35.9050 324.2111 15.08839543 32630,6917.882,95.438,541.493,538.001,0.0
52496.0,STARLINK-3871,PAYLOAD,2022-12-05 01:07:47,15.08826377,0.0002558,53.2174,349.1104,34.7353,325.3806,0.00025899,3.834e-05,0.0,0 STARLINK-3871,1 52496U 22049AX  22339.04708265  .00003834  00000-0  25899-3 0  9998,2 52496  53.2174 349.1104 0002558  34.7353 325.3806 15.08826377 32714,6917.922,95.438,541.557,538.0169999999998,0.0
52496.0,STARLINK-3871,PAYLOAD,2022-12-05 07:29:20,15.08833153,0.0002682,53.2171,347.9218,33.5781,326.538,0.00017591,2.512e-05,0.0,0 STARLINK-3871,1 52496U 22049AX  22339.31204257  .00002512  00000-0  17591-3 0  9992,2 52496  53.2171 347.9218 0002682  33.5781 326.5380 15.08833153 32757,6917.901,95.438,541.622,537.911,0.0
52496.0,STARLINK-3871,PAYLOAD,2022-12-06 00:58:34,15.0884039,0.0002743,53.2172,344.6508,30.8018,329.3135,0.00011311,1.512e-05,0.0,0 STARLINK-3871,1 52496U 22049AX  22340.04067805  .00001512  00000-0  11311-3 0  9993,2 52496  53.2172 344.6508 0002743  30.8018 329.3135 15.08840390 32867,6917.879,95.438,541.6419999999998,537.847,0.0
52496.0,STARLINK-3871,PAYLOAD,2022-12-06 12:06:17,15.08833332,0.000275,53.2176,342.5701,29.3565,330.7581,1.7796e-05,-5e-08,0.0,0 STARLINK-3871,1 52496U 22049AX  22340.50436607 -.00000005  00000-0  17796-4 0  9995,2 52496  53.2176 342.5701 0002750  29.3565 330.7581 15.08833332 32938,6917.901,95.438,541.668,537.863,0.0
52496.0,STARLINK-3871,PAYLOAD,2022-12-06 16:52:27,15.08829895,0.0003108,53.2174,341.677,28.737,331.3793,-5.4228e-05,-1.151e-05,0.0,0 STARLINK-3871,1 52496U 22049AX  22340.70309260 -.00001151  00000-0 -54228-4 0  9996,2 52496  53.2174 341.6770 0003108  28.7370 331.3793 15.08829895 32961,6917.911,95.438,541.9259999999998,537.626,0.0
52496.0,STARLINK-3871,PAYLOAD,2022-12-07 16:43:13,15.08838869,0.0002801,53.2176,337.2171,31.2916,328.8242,4.733e-07,-2.81e-06,0.0,0 STARLINK-3871,1 52496U 22049AX  22341.69668928 -.00000281  00000-0  47330-6 0  9994,2 52496  53.2176 337.2171 0002801  31.2916 328.8242 15.08838869 33112,6917.884,95.438,541.687,537.811,0.0
52496.0,STARLINK-3871,PAYLOAD,2022-12-08 00:40:09,15.088646300000002,0.0002518,53.2181,335.7305,36.8111,323.3054,-0.0004074,-6.771e-05,0.0,0 STARLINK-3871,1 52496U 22049AX  22342.02788967 -.00006771  00000-0 -40740-3 0  9994,2 52496  53.2181 335.7305 0002518  36.8111 323.3054 15.08864630 33164,6917.805,95.436,541.4119999999998,537.928,0.0
52496.0,STARLINK-3871,PAYLOAD,2022-12-08 08:37:04,15.08843702,0.0002656,53.2188,334.2439,29.707,330.4072,6.1623e-05,6.93e-06,0.0,0 STARLINK-3871,1 52496U 22049AX  22342.35908547  .00000693  00000-0  61623-4 0  9997,2 52496  53.2188 334.2439 0002656  29.7070 330.4072 15.08843702 33213,6917.869000000002,95.437,541.571,537.8969999999998,0.0
52496.0,STARLINK-3871,PAYLOAD,2022-12-09 08:27:51,15.08846977,0.0002799,53.2168,329.7819,31.6734,328.4426,0.00018182,2.607e-05,0.0,0 STARLINK-3871,1 52496U 22049AX  22343.35267952  .00002607  00000-0  18182-3 0  9994,2 52496  53.2168 329.7819 0002799  31.6734 328.4426 15.08846977 33362,6917.859,95.437,541.66,537.788,0.0
52496.0,STARLINK-3871,PAYLOAD,2022-12-09 16:24:49,15.088196900000002,0.0002921999999999,53.2177,328.2961,33.3322,326.7854,-9.1133e-05,-1.738e-05,0.0,0 STARLINK-3871,1 52496U 22049AX  22343.68390618 -.00001738  00000-0 -91133-4 0  9990,2 52496  53.2177 328.2961 0002922  33.3322 326.7854 15.08819690 33418,6917.941999999999,95.439,541.8290000000002,537.786,0.0
52496.0,STARLINK-3871,PAYLOAD,2022-12-10 06:43:17,15.08827555,0.0002634999999999,53.2175,325.6194,29.7113,330.4029,-8.73e-05,-1.677e-05,0.0,0 STARLINK-3871,1 52496U 22049AX  22344.28006745 -.00001677  00000-0 -87300-4 0  9995,2 52496  53.2175 325.6194 0002635  29.7113 330.4029 15.08827555 33508,6917.918000000002,95.438,541.606,537.961,0.0
52496.0,STARLINK-3871,PAYLOAD,2022-12-10 08:18:41,15.08827184,0.0002719,53.2176,325.3222,30.2894,329.8255,-8.594299999999999e-05,-1.656e-05,0.0,0 STARLINK-3871,1 52496U 22049AX  22344.34630887 -.00001656  00000-0 -85943-4 0  9990,2 52496  53.2176 325.3222 0002719  30.2894 329.8255 15.08827184 33516,6917.92,95.438,541.6659999999998,537.904,0.0
52496.0,STARLINK-3871,PAYLOAD,2022-12-11 04:58:41,15.08839054,0.0002881,53.2185,321.4597,30.4956,329.6204,4.2008e-05,3.8e-06,0.0,0 STARLINK-3871,1 52496U 22049AX  22345.20741925  .00000380  00000-0  42008-4 0  9998,2 52496  53.2185 321.4597 0002881  30.4956 329.6204 15.08839054 33644,6917.8830000000025,95.438,541.741,537.755,0.0
52496.0,STARLINK-3871,PAYLOAD,2022-12-12 08:00:14,15.08840079,0.0002373,53.2163,316.4022,28.7417,331.3705,0.00018943,2.728e-05,0.0,0 STARLINK-3871,1 52496U 22049AX  22346.33349566  .00002728  00000-0  18943-3 0  9996,2 52496  53.2163 316.4022 0002373  28.7417 331.3705 15.08840079 33819,6917.88,95.438,541.387,538.104,0.0
